NORAD_CAT_ID,OBJECT_NAME,OBJECT_TYPE,EPOCH,MEAN_MOTION,ECCENTRICITY,INCLINATION,RA_OF_ASC_NODE,ARG_OF_PERICENTER,MEAN_ANOMALY,BSTAR,MEAN_MOTION_DOT,MEAN_MOTION_DDOT,TLE_LINE0,TLE_LINE1,TLE_LINE2,SEMIMAJOR_AXIS,PERIOD,APOGEE,PERIGEE,DECAYED
51721.0,STARLINK-3524,PAYLOAD,2024-03-07 13:52:13,15.08841618,0.0001421,53.2196,15.7078,85.3357,274.7798,0.0002176,3.177e-05,0.0,0 STARLINK-3524,1 51721U 22016H   24067.57793876  .00003177  00000-0  21760-3 0  9995,2 51721  53.2196  15.7078 0001421  85.3357 274.7798 15.08841618112900,6917.875,95.437,540.723,538.757,0.0
51721.0,STARLINK-3524,PAYLOAD,2024-03-08 13:42:59,15.08858401,0.0001878,53.2216,11.2394,92.7331,267.3876,5.9824e-05,6.65e-06,0.0,0 STARLINK-3524,1 51721U 22016H   24068.57152730  .00000665  00000-0  59824-4 0  9996,2 51721  53.2216  11.2394 0001878  92.7331 267.3876 15.08858401113055,6917.824,95.436,540.988,538.39,0.0
51721.0,STARLINK-3524,PAYLOAD,2024-03-09 02:26:06,15.08832004,0.0001246,53.2186,8.8661,91.9084,268.2051,-5.0001e-05,-1.083e-05,0.0,0 STARLINK-3524,1 51721U 22016H   24069.10146417 -.00001083  00000-0 -50001-4 0  9996,2 51721  53.2186   8.8661 0001246  91.9084 268.2051 15.08832004114254,6917.905,95.438,540.632,538.908,0.0
51721.0,STARLINK-3524,PAYLOAD,2024-03-09 05:36:52,15.08838177,0.0001474,53.2192,8.2698,95.816,264.3,4.3171e-06,-2.19e-06,0.0,0 STARLINK-3524,1 51721U 22016H   24069.23393966 -.00000219  00000-0  43171-5 0  9993,2 51721  53.2192   8.2698 0001474  95.8160 264.3000 15.08838177114276,6917.886,95.438,540.771,538.731,0.0
51721.0,STARLINK-3524,PAYLOAD,2024-03-10 05:27:38,15.08843256,0.0002475,53.22,3.8095,146.2888,213.8262,0.00014223,1.976e-05,0.0,0 STARLINK-3524,1 51721U 22016H   24070.22753015  .00001976  00000-0  14223-3 0  9993,2 51721  53.2200   3.8095 0002475 146.2888 213.8262 15.08843256114428,6917.87,95.437,541.448,538.023,0.0
51721.0,STARLINK-3524,PAYLOAD,2024-03-10 22:56:54,15.08829815,0.0001265,53.2173,0.5377,96.1827,263.931,9.7011e-05,1.256e-05,0.0,0 STARLINK-3524,1 51721U 22016H   24070.95618234  .00001256  00000-0  97011-4 0  9994,2 51721  53.2173   0.5377 0001265  96.1827 263.9310 15.08829815113419,6917.912,95.438,540.652,538.901,0.0
51721.0,STARLINK-3524,PAYLOAD,2024-03-11 02:07:40,15.08828775,0.0001253,53.2187,359.9445,83.6654,276.448,9.8386e-05,1.278e-05,0.0,0 STARLINK-3524,1 51721U 22016H   24071.08866506  .00001278  00000-0  98386-4 0  9996,2 51721  53.2187 359.9445 0001253  83.6654 276.4480 15.08828775114554,6917.915,95.438,540.647,538.913,0.0
51721.0,STARLINK-3524,PAYLOAD,2024-03-11 11:39:58,15.08841301,0.0001249,53.2194,358.1623,84.3772,275.7362,9.1006e-05,1.161e-05,0.0,0 STARLINK-3524,1 51721U 22016H   24071.48609844  .00001161  00000-0  91006-4 0  9993,2 51721  53.2194 358.1623 0001249  84.3772 275.7362 15.08841301114613,6917.876,95.437,540.605,538.877,0.0
51721.0,STARLINK-3524,PAYLOAD,2024-03-12 00:23:04,15.08837376,0.0001575,53.2198,355.7858,97.5997,262.5174,-5.748e-05,-1.203e-05,0.0,0 STARLINK-3524,1 51721U 22016H   24072.01602654 -.00001203  00000-0 -57480-4 0  9992,2 51721  53.2198 355.7858 0001575  97.5997 262.5174 15.08837376114697,6917.888,95.438,540.843,538.664,0.0
51721.0,STARLINK-3524,PAYLOAD,2024-03-12 05:09:14,15.08835515,0.0001497,53.2181,354.8902,89.3487,270.7677,-1.2105e-05,-4.81e-06,0.0,0 STARLINK-3524,1 51721U 22016H   24072.21474699 -.00000481  00000-0 -12105-4 0  9992,2 51721  53.2181 354.8902 0001497  89.3487 270.7677 15.08835515113607,6917.894,95.438,540.795,538.723,0.0
51721.0,STARLINK-3524,PAYLOAD,2024-03-13 03:24:37,15.088403,0.0001268,53.2191,350.7273,81.2588,278.8548,0.00017124,2.438e-05,0.0,0 STARLINK-3524,1 51721U 22016H   24073.14210250  .00002438  00000-0  17124-3 0  9993,2 51721  53.2191 350.7273 0001268  81.2588 278.8548 15.08840300114866,6917.879,95.438,540.622,538.867,0.0
51721.0,STARLINK-3524,PAYLOAD,2024-03-13 11:21:32,15.08860119,0.0001322,53.2194,349.2389,68.7824,291.331,0.00014593,2.037e-05,0.0,0 STARLINK-3524,1 51721U 22016H   24073.47328915  .00002037  00000-0  14593-3 0  9999,2 51721  53.2194 349.2389 0001322  68.7824 291.3310 15.08860119114917,6917.819,95.436,540.598,538.769,0.0
51721.0,STARLINK-3524,PAYLOAD,2024-03-13 17:43:05,15.088533,0.0003089,53.2165,348.0531,83.5727,276.5617,0.00024533,3.62e-05,0.0,0 STARLINK-3524,1 51721U 22016H   24073.73825869  .00003620  00000-0  24533-3 0  9992,2 51721  53.2165 348.0531 0003089  83.5727 276.5617 15.08853300114953,6917.84,95.437,541.842,537.568,0.0
51721.0,STARLINK-3524,PAYLOAD,2024-03-13 22:29:15,15.08835213,0.000194,53.2176,347.1601,88.0384,272.0831,4.2798e-05,3.93e-06,0.0,0 STARLINK-3524,1 51721U 22016H   24073.93698627  .00000393  00000-0  42798-4 0  9992,2 51721  53.2176 347.1601 0001940  88.0384 272.0831 15.08835213113867,6917.895,95.438,541.102,538.418,0.0
51721.0,STARLINK-3524,PAYLOAD,2024-03-14 03:15:24,15.08844502,0.0001128,53.2172,346.2658,104.4202,255.6916,0.00013332,1.835e-05,0.0,0 STARLINK-3524,1 51721U 22016H   24074.13570068  .00001835  00000-0  13332-3 0  9996,2 51721  53.2172 346.2658 0001128 104.4202 255.6916 15.08844502115016,6917.867,95.437,540.512,538.951,0.0
51721.0,STARLINK-3524,PAYLOAD,2024-03-14 22:20:02,15.08843713,0.0001232,53.2166,342.6983,92.2044,267.9089,-4.0044e-05,-9.25e-06,0.0,0 STARLINK-3524,1 51721U 22016H   24074.93058209 -.00000925  00000-0 -40044-4 0  9994,2 51721  53.2166 342.6983 0001232  92.2044 267.9089 15.08843713114013,6917.869,95.437,540.586,538.882,0.0
51721.0,STARLINK-3524,PAYLOAD,2024-03-15 03:06:11,15.08842238,0.0001193,53.2167,341.806,92.1264,267.9865,-3.0702e-05,-7.76e-06,0.0,0 STARLINK-3524,1 51721U 22016H   24075.12930278 -.00000776  00000-0 -30702-4 0  9995,2 51721  53.2167 341.8060 0001193  92.1264 267.9865 15.08842238115160,6917.874,95.437,540.564,538.913,0.0
51721.0,STARLINK-3524,PAYLOAD,2024-03-15 22:10:50,15.0882989,0.0001339,53.2168,338.2376,92.7571,267.3574,0.00037968,5.758e-05,0.0,0 STARLINK-3524,1 51721U 22016H   24075.92419239  .00005758  00000-0  37968-3 0  9995,2 51721  53.2168 338.2376 0001339  92.7571 267.3574 15.08829890114169,6917.911,95.438,540.703,538.85,0.0
51721.0,STARLINK-3524,PAYLOAD,2024-03-15 23:46:12,15.08839827,0.0001371,53.2168,337.9404,88.9003,271.2146,8.8488e-05,1.121e-05,0.0,0 STARLINK-3524,1 51721U 22016H   24075.99042641  .00001121  00000-0  88488-4 0  9995,2 51721  53.2168 337.9404 0001371  88.9003 271.2146 15.08839827114171,6917.881,95.438,540.694,538.797,0.0
51721.0,STARLINK-3524,PAYLOAD,2024-03-16 20:26:13,15.08840417,0.0001431,53.2172,334.0731,78.7386,281.3767,0.00012985,1.779e-05,0.0,0 STARLINK-3524,1 51721U 22016H   24076.85154786  .00001779  00000-0  12985-3 0  9992,2 51721  53.2172 334.0731 0001431  78.7386 281.3767 15.08840417115422,6917.879,95.438,540.734,538.754,0.0
51721.0,STARLINK-3524,PAYLOAD,2024-03-16 22:01:36,15.08840509,0.0001356,53.2181,333.7754,83.6469,276.4677,0.00010596,1.399e-05,0.0,0 STARLINK-3524,1 51721U 22016H   24076.91778681  .00001399  00000-0  10596-3 0  9999,2 51721  53.2181 333.7754 0001356  83.6469 276.4677 15.08840509114310,6917.879,95.438,540.682,538.806,0.0
51721.0,STARLINK-3524,PAYLOAD,2024-03-17 02:47:46,15.08840625,0.0001339,53.218,332.8848,85.2948,274.8198,9.553e-05,1.233e-05,0.0,0 STARLINK-3524,1 51721U 22016H   24077.11650701  .00001233  00000-0  95530-4 0  9993,2 51721  53.2180 332.8848 0001339  85.2948 274.8198 15.08840625114346,6917.878,95.438,540.67,538.817,0.0
51721.0,STARLINK-3524,PAYLOAD,2024-03-17 21:52:23,15.08841796,0.000137,53.218,329.3168,98.3935,261.7213,8.6477e-05,1.089e-05,0.0,0 STARLINK-3524,1 51721U 22016H   24077.91138547  .00001089  00000-0  86477-4 0  9999,2 51721  53.2180 329.3168 0001370  98.3935 261.7213 15.08841796114464,6917.875,95.437,540.688,538.792,0.0
51721.0,STARLINK-3524,PAYLOAD,2024-03-18 02:38:33,15.08843043,0.0001323,53.2178,328.4244,92.7268,267.3875,8.8474e-05,1.121e-05,0.0,0 STARLINK-3524,1 51721U 22016H   24078.11010450  .00001121  00000-0  88474-4 0  9990,2 51721  53.2178 328.4244 0001323  92.7268 267.3875 15.08843043115612,6917.871,95.437,540.651,538.821,0.0
51721.0,STARLINK-3524,PAYLOAD,2024-03-18 21:43:10,15.08841351,0.0001312,53.2179,324.8556,86.8932,273.221,7.7058e-05,9.39e-06,0.0,0 STARLINK-3524,1 51721U 22016H   24078.90498558  .00000939  00000-0  77058-4 0  9998,2 51721  53.2179 324.8556 0001312  86.8932 273.2210 15.08841351114617,6917.876,95.437,540.649,538.834,0.0
51721.0,STARLINK-3524,PAYLOAD,2024-03-18 23:18:33,15.08840819,0.0001296,53.2179,324.5583,83.3211,276.7928,6.9071e-05,8.12e-06,0.0,0 STARLINK-3524,1 51721U 22016H   24078.97122612  .00000812  00000-0  69071-4 0  9996,2 51721  53.2179 324.5583 0001296  83.3211 276.7928 15.08840819114620,6917.878,95.438,540.639,538.846,0.0
51721.0,STARLINK-3524,PAYLOAD,2024-03-19 21:33:57,15.08847773,0.0001261,53.2177,320.3946,86.0063,274.1073,0.00011117,1.482e-05,0.0,0 STARLINK-3524,1 51721U 22016H   24079.89857956  .00001482  00000-0  11117-3 0  9995,2 51721  53.2177 320.3946 0001261  86.0063 274.1073 15.08847773115880,6917.857,95.437,540.594,538.849,0.0
51721.0,STARLINK-3524,PAYLOAD,2024-03-20 21:24:44,15.08838565,0.0001648,53.2172,315.942,137.4764,222.6356,-3.8523e-05,-9.01e-06,0.0,0 STARLINK-3524,1 51721U 22016H   24080.89218201 -.00000901  00000-0 -38523-4 0  9999,2 51721  53.2172 315.9420 0001648 137.4764 222.6356 15.08838565116039,6917.885,95.438,540.89,538.61,0.0
51721.0,STARLINK-3524,PAYLOAD,2024-03-21 00:35:31,15.08835657,9.52e-05,53.2164,315.3411,92.7118,267.3983,-9.2652e-06,-4.35e-06,0.0,0 STARLINK-3524,1 51721U 22016H   24081.02467042 -.00000435  00000-0 -92652-5 0  9990,2 51721  53.2164 315.3411 0000952  92.7118 267.3983 15.08835657116050,6917.894,95.438,540.417,539.1,0.0
51721.0,STARLINK-3524,PAYLOAD,2024-03-21 08:32:27,15.08838027,0.0001084,53.2174,313.8546,84.4297,275.6818,2.7372e-05,1.48e-06,0.0,0 STARLINK-3524,1 51721U 22016H   24081.35586941  .00000148  00000-0  27372-4 0  9991,2 51721  53.2174 313.8546 0001084  84.4297 275.6818 15.08838027114989,6917.886,95.438,540.501,539.002,0.0
